start=new Date('2023-02-20T00:00:00.000Z').valueOf();
sats=[{"MEAN_ELEMENT_THEORY":"SGP4","INCLINATION":"53.2172","OBJECT_NAME":"STARLINK-5022","TLE_LINE1":"1 53903U 22119T   23050.82667302  .00002691  00000-0  18713-3 0  9990","OBJECT_TYPE":"PAYLOAD","TLE_LINE2":"2 53903  53.2172 284.1288 0001187 109.1163 250.9958 15.08829728 23118","DECAY_DATE":null,"SEMIMAJOR_AXIS":"6917.912","CLASSIFICATION_TYPE":"U","SITE":"AFETR","CENTER_NAME":"EARTH","COUNTRY_CODE":"US","MEAN_MOTION_DDOT":"0.0000000000000","EPHEMERIS_TYPE":"0","FILE":"3811740","RCS_SIZE":"LARGE","NORAD_CAT_ID":"53903","REF_FRAME":"TEME","APOAPSIS":"540.598","ECCENTRICITY":"0.00011870","TIME_SYSTEM":"UTC","BSTAR":"0.00018713000000","MEAN_ANOMALY":"250.9958","MEAN_MOTION":"15.08829728","EPOCH":"2023-02-19T19:50:24.548928","LAUNCH_DATE":"2022-09-24","ARG_OF_PERICENTER":"109.1163","RA_OF_ASC_NODE":"284.1288","PERIOD":"95.438","OBJECT_ID":"2022-119T","MEAN_MOTION_DOT":"0.00002691","PERIAPSIS":"538.956","REV_AT_EPOCH":"2311","ELEMENT_SET_NO":"999","GP_ID":"226053098"},{"ARG_OF_PERICENTER":"107.4725","EPOCH":"2023-02-19T19:39:47.498400","LAUNCH_DATE":"2022-09-24","MEAN_MOTION":"15.08852223","BSTAR":"0.00025424000000","MEAN_ANOMALY":"252.6396","TIME_SYSTEM":"UTC","GP_ID":"226052588","MEAN_MOTION_DOT":"0.00003762","PERIAPSIS":"538.894","REV_AT_EPOCH":"2311","ELEMENT_SET_NO":"999","OBJECT_ID":"2022-119U","RA_OF_ASC_NODE":"284.0839","PERIOD":"95.437","CENTER_NAME":"EARTH","SITE":"AFETR","CLASSIFICATION_TYPE":"U","SEMIMAJOR_AXIS":"6917.843","TLE_LINE2":"2 53904  53.2162 284.0839 0001176 107.4725 252.6396 15.08852223 23113","DECAY_DATE":null,"TLE_LINE1":"1 53904U 22119U   23050.81929975  .00003762  00000-0  25424-3 0  9994","OBJECT_TYPE":"PAYLOAD","INCLINATION":"53.2162","MEAN_ELEMENT_THEORY":"SGP4","OBJECT_NAME":"STARLINK-4787","ECCENTRICITY":"0.00011760","APOAPSIS":"540.522","FILE":"3811740","RCS_SIZE":"LARGE","NORAD_CAT_ID":"53904","REF_FRAME":"TEME","EPHEMERIS_TYPE":"0","MEAN_MOTION_DDOT":"0.0000000000000","COUNTRY_CODE":"US"},{"DECAY_DATE":null,"TLE_LINE2":"2 53905  53.2152 274.4436 0001470  82.6418 277.4741 15.08843624 23258","OBJECT_TYPE":"PAYLOAD","TLE_LINE1":"1 53905U 22119V   23050.87549805  .00003617  00000-0  24518-3 0  9993","OBJECT_NAME":"STARLINK-5003","MEAN_ELEMENT_THEORY":"SGP4","INCLINATION":"53.2152","SITE":"AFETR","CENTER_NAME":"EARTH","CLASSIFICATION_TYPE":"U","SEMIMAJOR_AXIS":"6917.869","MEAN_MOTION_DDOT":"0.0000000000000","COUNTRY_CODE":"US","ECCENTRICITY":"0.00014700","APOAPSIS":"540.751","NORAD_CAT_ID":"53905","REF_FRAME":"TEME","RCS_SIZE":"LARGE","FILE":"3811741","EPHEMERIS_TYPE":"0","MEAN_ANOMALY":"277.4741","BSTAR":"0.00024518000000","TIME_SYSTEM":"UTC","ARG_OF_PERICENTER":"82.6418","LAUNCH_DATE":"2022-09-24","EPOCH":"2023-02-19T21:00:43.031520","MEAN_MOTION":"15.08843624","PERIAPSIS":"538.717","ELEMENT_SET_NO":"999","REV_AT_EPOCH":"2325","MEAN_MOTION_DOT":"0.00003617","OBJECT_ID":"2022-119V","RA_OF_ASC_NODE":"274.4436","PERIOD":"95.437","GP_ID":"226052604"},{"OBJECT_ID":"2022-119W","RA_OF_ASC_NODE":"274.1322","PERIOD":"95.437","MEAN_MOTION_DOT":"0.00004513","REV_AT_EPOCH":"2325","PERIAPSIS":"538.842","ELEMENT_SET_NO":"999","GP_ID":"226052625","TIME_SYSTEM":"UTC","BSTAR":"0.00030135000000","MEAN_ANOMALY":"283.2267","EPOCH":"2023-02-19T19:46:25.461984","LAUNCH_DATE":"2022-09-24","MEAN_MOTION":"15.08852960","ARG_OF_PERICENTER":"76.8865","MEAN_MOTION_DDOT":"0.0000000000000","COUNTRY_CODE":"US","FILE":"3811742","RCS_SIZE":"LARGE","REF_FRAME":"TEME","NORAD_CAT_ID":"53906","EPHEMERIS_TYPE":"0","ECCENTRICITY":"0.00012490","APOAPSIS":"540.570","MEAN_ELEMENT_THEORY":"SGP4","INCLINATION":"53.2169","OBJECT_NAME":"STARLINK-5054","TLE_LINE2":"2 53906  53.2169 274.1322 0001249  76.8865 283.2267 15.08852960 23254","DECAY_DATE":null,"OBJECT_TYPE":"PAYLOAD","TLE_LINE1":"1 53906U 22119W   23050.82390581  .00004513  00000-0  30135-3 0  9992","CLASSIFICATION_TYPE":"U","SEMIMAJOR_AXIS":"6917.841","SITE":"AFETR","CENTER_NAME":"EARTH"},{"TLE_LINE2":"2 53907  53.2175 284.0580 0000924  94.7345 265.3752 15.08839912 23116","DECAY_DATE":null,"TLE_LINE1":"1 53907U 22119X   23050.81561388  .00000933  00000-0  76692-4 0  9998","OBJECT_TYPE":"PAYLOAD","MEAN_ELEMENT_THEORY":"SGP4","INCLINATION":"53.2175","OBJECT_NAME":"STARLINK-5063","SITE":"AFETR","CENTER_NAME":"EARTH","CLASSIFICATION_TYPE":"U","SEMIMAJOR_AXIS":"6917.881","MEAN_MOTION_DDOT":"0.0000000000000","COUNTRY_CODE":"US","ECCENTRICITY":"0.00009240","APOAPSIS":"540.385","FILE":"3811741","RCS_SIZE":"LARGE","NORAD_CAT_ID":"53907","REF_FRAME":"TEME","EPHEMERIS_TYPE":"0","BSTAR":"0.00007669200000","MEAN_ANOMALY":"265.3752","TIME_SYSTEM":"UTC","ARG_OF_PERICENTER":"94.7345","EPOCH":"2023-02-19T19:34:29.039232","LAUNCH_DATE":"2022-09-24","MEAN_MOTION":"15.08839912","MEAN_MOTION_DOT":"0.00000933","PERIAPSIS":"539.106","ELEMENT_SET_NO":"999","REV_AT_EPOCH":"2311","OBJECT_ID":"2022-119X","PERIOD":"95.438","RA_OF_ASC_NODE":"284.0580","GP_ID":"226052603"},{"SITE":"AFETR","CENTER_NAME":"EARTH","CLASSIFICATION_TYPE":"U","SEMIMAJOR_AXIS":"6917.741","TLE_LINE2":"2 53908  53.2180 273.8047 0001656 107.7241 252.3932 15.08885761 23276","DECAY_DATE":null,"OBJECT_TYPE":"PAYLOAD","TLE_LINE1":"1 53908U 22119Y   23051.00058735 -.00006221  00000-0 -37263-3 0  9996","MEAN_ELEMENT_THEORY":"SGP4","INCLINATION":"53.2180","OBJECT_NAME":"STARLINK-5057","ECCENTRICITY":"0.00016560","APOAPSIS":"540.751","FILE":"3813061","RCS_SIZE":"LARGE","REF_FRAME":"TEME","NORAD_CAT_ID":"53908","EPHEMERIS_TYPE":"0","MEAN_MOTION_DDOT":"0.0000000000000","COUNTRY_CODE":"US","ARG_OF_PERICENTER":"107.7241","EPOCH":"2023-02-20T00:00:50.747040","LAUNCH_DATE":"2022-09-24","MEAN_MOTION":"15.08885761","BSTAR":"-0.00037263000000","MEAN_ANOMALY":"252.3932","TIME_SYSTEM":"UTC","GP_ID":"226079050","MEAN_MOTION_DOT":"-0.00006221","REV_AT_EPOCH":"2327","PERIAPSIS":"538.460","ELEMENT_SET_NO":"999","OBJECT_ID":"2022-119Y","RA_OF_ASC_NODE":"273.8047","PERIOD":"95.435"},{"EPHEMERIS_TYPE":"0","NORAD_CAT_ID":"53909","REF_FRAME":"TEME","RCS_SIZE":"LARGE","FILE":"3811745","APOAPSIS":"540.742","ECCENTRICITY":"0.00015050","COUNTRY_CODE":"US","MEAN_MOTION_DDOT":"0.0000000000000","SEMIMAJOR_AXIS":"6917.836","CLASSIFICATION_TYPE":"U","SITE":"AFETR","CENTER_NAME":"EARTH","OBJECT_NAME":"STARLINK-4796","MEAN_ELEMENT_THEORY":"SGP4","INCLINATION":"53.2148","OBJECT_TYPE":"PAYLOAD","TLE_LINE1":"1 53909U 22119Z   23050.87917544  .00004519  00000-0  30170-3 0  9999","DECAY_DATE":null,"TLE_LINE2":"2 53909  53.2148 274.4648 0001505  81.8459 278.2704 15.08854411 23251","GP_ID":"226052671","RA_OF_ASC_NODE":"274.4648","PERIOD":"95.437","OBJECT_ID":"2022-119Z","PERIAPSIS":"538.660","REV_AT_EPOCH":"2325","ELEMENT_SET_NO":"999","MEAN_MOTION_DOT":"0.00004519","MEAN_MOTION":"15.08854411","LAUNCH_DATE":"2022-09-24","EPOCH":"2023-02-19T21:06:00.758016","ARG_OF_PERICENTER":"81.8459","TIME_SYSTEM":"UTC","MEAN_ANOMALY":"278.2704","BSTAR":"0.00030170000000"},{"OBJECT_ID":"2022-119AA","RA_OF_ASC_NODE":"277.9245","PERIOD":"95.438","PERIAPSIS":"538.966","REV_AT_EPOCH":"2355","ELEMENT_SET_NO":"999","MEAN_MOTION_DOT":"-0.00001482","GP_ID":"226049771","TIME_SYSTEM":"UTC","MEAN_ANOMALY":"271.1813","BSTAR":"-0.00007505700000","LAUNCH_DATE":"2022-09-24","EPOCH":"2023-02-19T01:34:51.502368","MEAN_MOTION":"15.08837476","ARG_OF_PERICENTER":"88.9310","MEAN_MOTION_DDOT":"0.0000000000000","COUNTRY_CODE":"US","REF_FRAME":"TEME","NORAD_CAT_ID":"53910","FILE":"3811610","RCS_SIZE":"LARGE","EPHEMERIS_TYPE":"0","ECCENTRICITY":"0.00011380","APOAPSIS":"540.540","OBJECT_NAME":"STARLINK-5056","MEAN_ELEMENT_THEORY":"SGP4","INCLINATION":"53.2172","DECAY_DATE":null,"TLE_LINE2":"2 53910  53.2172 277.9245 0001138  88.9310 271.1813 15.08837476 23555","OBJECT_TYPE":"PAYLOAD","TLE_LINE1":"1 53910U 22119AA  23050.06587387 -.00001482  00000-0 -75057-4 0  9992","CLASSIFICATION_TYPE":"U","SEMIMAJOR_AXIS":"6917.888","CENTER_NAME":"EARTH","SITE":"AFETR"},{"BSTAR":"0.00061434000000","MEAN_ANOMALY":"238.5927","TIME_SYSTEM":"UTC","ARG_OF_PERICENTER":"121.5173","EPOCH":"2023-02-19T20:55:24.784896","LAUNCH_DATE":"2022-09-24","MEAN_MOTION":"15.08800852","MEAN_MOTION_DOT":"0.00009492","ELEMENT_SET_NO":"999","PERIAPSIS":"539.104","REV_AT_EPOCH":"2325","OBJECT_ID":"2022-119AB","PERIOD":"95.440","RA_OF_ASC_NODE":"274.4196","GP_ID":"226052689","TLE_LINE2":"2 53911  53.2178 274.4196 0001100 121.5173 238.5927 15.08800852 23257","DECAY_DATE":null,"OBJECT_TYPE":"PAYLOAD","TLE_LINE1":"1 53911U 22119AB  23050.87181464  .00009492  00000-0  61434-3 0  9998","INCLINATION":"53.2178","MEAN_ELEMENT_THEORY":"SGP4","OBJECT_NAME":"STARLINK-5048","SITE":"AFETR","CENTER_NAME":"EARTH","CLASSIFICATION_TYPE":"U","SEMIMAJOR_AXIS":"6918.000","MEAN_MOTION_DDOT":"0.0000000000000","COUNTRY_CODE":"US","ECCENTRICITY":"0.00011000","APOAPSIS":"540.626","FILE":"3811746","RCS_SIZE":"LARGE","NORAD_CAT_ID":"53911","REF_FRAME":"TEME","EPHEMERIS_TYPE":"0"},{"GP_ID":"226048770","PERIOD":"95.437","RA_OF_ASC_NODE":"275.0051","OBJECT_ID":"2022-119AC","PERIAPSIS":"538.881","REV_AT_EPOCH":"2364","ELEMENT_SET_NO":"999","MEAN_MOTION_DOT":"0.00005039","MEAN_MOTION":"15.08850102","LAUNCH_DATE":"2022-09-24","EPOCH":"2023-02-19T14:54:58.010400","ARG_OF_PERICENTER":"77.6923","TIME_SYSTEM":"UTC","MEAN_ANOMALY":"282.4204","BSTAR":"0.00033439000000","EPHEMERIS_TYPE":"0","REF_FRAME":"TEME","NORAD_CAT_ID":"53912","RCS_SIZE":"LARGE","FILE":"3811610","APOAPSIS":"540.548","ECCENTRICITY":"0.00012050","COUNTRY_CODE":"US","MEAN_MOTION_DDOT":"0.0000000000000","SEMIMAJOR_AXIS":"6917.850","CLASSIFICATION_TYPE":"U","CENTER_NAME":"EARTH","SITE":"AFETR","OBJECT_NAME":"STARLINK-5059","MEAN_ELEMENT_THEORY":"SGP4","INCLINATION":"53.2155","TLE_LINE1":"1 53912U 22119AC  23050.62150475  .00005039  00000-0  33439-3 0  9997","OBJECT_TYPE":"PAYLOAD","DECAY_DATE":null,"TLE_LINE2":"2 53912  53.2155 275.0051 0001205  77.6923 282.4204 15.08850102 23642"}];
